[{"OBJECT_NAME":"LAPAN-A3","OBJECT_ID":"2016-040E","EPOCH":"2026-03-09T23:01:57.724896","MEAN_MOTION":15.3238951,"ECCENTRICITY":0.00109839,"INCLINATION":97.1488,"RA_OF_ASC_NODE":68.4254,"ARG_OF_PERICENTER":22.062,"MEAN_ANOMALY":338.1093,"EPHEMERIS_TYPE":0,"CLASSIFICATION_TYPE":"U","NORAD_CAT_ID":41603,"ELEMENT_SET_NO":999,"REV_AT_EPOCH":53961,"BSTAR":0.00017567445,"MEAN_MOTION_DOT":5.428e-5,"MEAN_MOTION_DDOT":0},{"OBJECT_NAME":"STARLINK-35869","OBJECT_ID":"2025-254F","EPOCH":"2026-03-09T17:00:19.734336","MEAN_MOTION":15.30203013,"ECCENTRICITY":0.00010242,"INCLINATION":53.1608,"RA_OF_ASC_NODE":232.0034,"ARG_OF_PERICENTER":79.2346,"MEAN_ANOMALY":280.877,"EPHEMERIS_TYPE":0,"CLASSIFICATION_TYPE":"U","NORAD_CAT_ID":66353,"ELEMENT_SET_NO":999,"REV_AT_EPOCH":1898,"BSTAR":0.00083327588,"MEAN_MOTION_DOT":0.00024403,"MEAN_MOTION_DDOT":0}]
